{
  "updatedAt": "2026-03-20T16:26:01.420Z",
  "entries": {
    "koreasat-6-37265": {
      "fetchedAt": "2026-03-20T16:26:01.420Z",
      "fleetEntry": {
        "id": "koreasat-6-37265",
        "name": "KOREASAT 6",
        "englishName": "KOREASAT 6",
        "domesticName": "KOREASAT 6",
        "color": "#65d4a8",
        "norad": "37265",
        "orbitClass": "geo",
        "orbitLabel": "GEO",
        "missionType": "communications",
        "missionLabel": "상업 통신",
        "operationalStatus": "비현역",
        "objectId": "2010-070B",
        "launchDate": "2010-12-29",
        "sourceDate": "2026-03-20",
        "sourceLabel": "Space-Track cached GP",
        "omm": {
          "CCSDS_OMM_VERS": "3.0",
          "COMMENT": "GENERATED VIA SPACE-TRACK.ORG API",
          "CREATION_DATE": "2026-03-20T14:26:40",
          "ORIGINATOR": "18 SPCS",
          "OBJECT_NAME": "KOREASAT 6",
          "OBJECT_ID": "2010-070B",
          "CENTER_NAME": "EARTH",
          "REF_FRAME": "TEME",
          "TIME_SYSTEM": "UTC",
          "MEAN_ELEMENT_THEORY": "SGP4",
          "EPOCH": "2026-03-20T11:50:38.856192",
          "MEAN_MOTION": 1.00271976,
          "ECCENTRICITY": 0.0002239,
          "INCLINATION": 0.0206,
          "RA_OF_ASC_NODE": 244.6064,
          "ARG_OF_PERICENTER": 101.1201,
          "MEAN_ANOMALY": 169.8375,
          "EPHEMERIS_TYPE": 0,
          "CLASSIFICATION_TYPE": "U",
          "NORAD_CAT_ID": 37265,
          "ELEMENT_SET_NO": 999,
          "REV_AT_EPOCH": 5588,
          "BSTAR": 0,
          "MEAN_MOTION_DOT": -0.00000109,
          "MEAN_MOTION_DDOT": 0,
          "SEMIMAJOR_AXIS": "42164.678",
          "PERIOD": "1436.094",
          "APOAPSIS": "35795.984",
          "PERIAPSIS": "35777.103",
          "OBJECT_TYPE": "PAYLOAD",
          "RCS_SIZE": "LARGE",
          "COUNTRY_CODE": "SKOR",
          "LAUNCH_DATE": "2010-12-29",
          "SITE": "FRGUI",
          "DECAY_DATE": null,
          "FILE": "5093185",
          "GP_ID": "316565841",
          "TLE_LINE0": "0 KOREASAT 6",
          "TLE_LINE1": "1 37265U 10070B   26079.49350528 -.00000109  00000-0  00000+0 0  9991",
          "TLE_LINE2": "2 37265   0.0206 244.6064 0002239 101.1201 169.8375  1.00271976 55889"
        }
      }
    },
    "stsat-2c-39068": {
      "fetchedAt": "2026-03-20T13:09:35.883Z",
      "fleetEntry": {
        "id": "stsat-2c-39068",
        "name": "STSAT 2C",
        "englishName": "STSAT 2C",
        "domesticName": "STSAT 2C",
        "color": "#8bd0ff",
        "norad": "39068",
        "orbitClass": "leo",
        "orbitLabel": "LEO",
        "missionType": "technology",
        "missionLabel": "기술실증/학술",
        "operationalStatus": "비현역",
        "objectId": "2013-003A",
        "launchDate": "2013-01-30",
        "sourceDate": "2019-11-12",
        "sourceLabel": "Space-Track cached GP",
        "omm": {
          "CCSDS_OMM_VERS": "3.0",
          "COMMENT": "GENERATED VIA SPACE-TRACK.ORG API",
          "CREATION_DATE": "2019-11-13T07:00:15",
          "ORIGINATOR": "18 SPCS",
          "OBJECT_NAME": "STSAT 2C",
          "OBJECT_ID": "2013-003A",
          "CENTER_NAME": "EARTH",
          "REF_FRAME": "TEME",
          "TIME_SYSTEM": "UTC",
          "MEAN_ELEMENT_THEORY": "SGP4",
          "EPOCH": "2019-11-12T20:02:02.697216",
          "MEAN_MOTION": 16.49540072,
          "ECCENTRICITY": 0.0013524,
          "INCLINATION": 80.1354,
          "RA_OF_ASC_NODE": 354.2078,
          "ARG_OF_PERICENTER": 288.4311,
          "MEAN_ANOMALY": 71.5514,
          "EPHEMERIS_TYPE": 0,
          "CLASSIFICATION_TYPE": "U",
          "NORAD_CAT_ID": 39068,
          "ELEMENT_SET_NO": 999,
          "REV_AT_EPOCH": 36863,
          "BSTAR": 0.00013058,
          "MEAN_MOTION_DOT": 0.11474664,
          "MEAN_MOTION_DDOT": -7.2442e-7,
          "SEMIMAJOR_AXIS": "6518.683",
          "PERIOD": "87.297",
          "APOAPSIS": "149.364",
          "PERIAPSIS": "131.733",
          "OBJECT_TYPE": "PAYLOAD",
          "RCS_SIZE": "MEDIUM",
          "COUNTRY_CODE": "SKOR",
          "LAUNCH_DATE": "2013-01-30",
          "SITE": "NSC",
          "DECAY_DATE": "2019-11-13",
          "FILE": "2650767",
          "GP_ID": "142938213",
          "TLE_LINE0": "0 STSAT 2C",
          "TLE_LINE1": "1 39068U 13003A   19316.83475344  .11474664 -72442-6  13058-3 0  9990",
          "TLE_LINE2": "2 39068  80.1354 354.2078 0013524 288.4311  71.5514 16.49540072368637"
        }
      }
    },
    "ossi-1-39131": {
      "fetchedAt": "2026-03-20T13:09:35.883Z",
      "fleetEntry": {
        "id": "ossi-1-39131",
        "name": "OSSI 1",
        "englishName": "OSSI 1",
        "domesticName": "OSSI 1",
        "color": "#7bdff2",
        "norad": "39131",
        "orbitClass": "leo",
        "orbitLabel": "LEO",
        "missionType": "technology",
        "missionLabel": "기술실증/학술",
        "operationalStatus": "비현역",
        "objectId": "2013-015B",
        "launchDate": "2013-04-19",
        "sourceDate": "2013-07-07",
        "sourceLabel": "Space-Track cached GP",
        "omm": {
          "CCSDS_OMM_VERS": "3.0",
          "COMMENT": "GENERATED VIA SPACE-TRACK.ORG API",
          "CREATION_DATE": "2013-07-09T09:13:14",
          "ORIGINATOR": "18 SPCS",
          "OBJECT_NAME": "OSSI 1",
          "OBJECT_ID": "2013-015B",
          "CENTER_NAME": "EARTH",
          "REF_FRAME": "TEME",
          "TIME_SYSTEM": "UTC",
          "MEAN_ELEMENT_THEORY": "SGP4",
          "EPOCH": "2013-07-07T10:00:15.348383",
          "MEAN_MOTION": 16.22925119,
          "ECCENTRICITY": 0.0051126,
          "INCLINATION": 64.8841,
          "RA_OF_ASC_NODE": 114.8425,
          "ARG_OF_PERICENTER": 26.6892,
          "MEAN_ANOMALY": 350.0589,
          "EPHEMERIS_TYPE": 0,
          "CLASSIFICATION_TYPE": "U",
          "NORAD_CAT_ID": 39131,
          "ELEMENT_SET_NO": 999,
          "REV_AT_EPOCH": 1237,
          "BSTAR": 0.00044818,
          "MEAN_MOTION_DOT": 0.01502874,
          "MEAN_MOTION_DDOT": 0.0000074059,
          "SEMIMAJOR_AXIS": "6589.763",
          "PERIOD": "88.728",
          "APOAPSIS": "245.318",
          "PERIAPSIS": "177.937",
          "OBJECT_TYPE": "PAYLOAD",
          "RCS_SIZE": null,
          "COUNTRY_CODE": "SKOR",
          "LAUNCH_DATE": "2013-04-19",
          "SITE": "TTMTR",
          "DECAY_DATE": "2013-07-08",
          "FILE": "1513356",
          "GP_ID": "93287853",
          "TLE_LINE0": "0 OSSI 1",
          "TLE_LINE1": "1 39131U 13015B   13188.41684431  .01502874  74059-5  44818-3 0  9994",
          "TLE_LINE2": "2 39131 064.8841 114.8425 0051126 026.6892 350.0589 16.22925119 12374"
        }
      }
    },
    "stsat-3-39422": {
      "fetchedAt": "2026-03-20T16:26:01.420Z",
      "fleetEntry": {
        "id": "stsat-3-39422",
        "name": "STSAT 3",
        "englishName": "STSAT 3",
        "domesticName": "STSAT 3",
        "color": "#f6bd60",
        "norad": "39422",
        "orbitClass": "leo",
        "orbitLabel": "LEO SSO",
        "missionType": "technology",
        "missionLabel": "기술실증/학술",
        "operationalStatus": "비현역",
        "objectId": "2013-066G",
        "launchDate": "2013-11-21",
        "sourceDate": "2026-03-20",
        "sourceLabel": "Space-Track cached GP",
        "omm": {
          "CCSDS_OMM_VERS": "3.0",
          "COMMENT": "GENERATED VIA SPACE-TRACK.ORG API",
          "CREATION_DATE": "2026-03-20T14:26:40",
          "ORIGINATOR": "18 SPCS",
          "OBJECT_NAME": "STSAT 3",
          "OBJECT_ID": "2013-066G",
          "CENTER_NAME": "EARTH",
          "REF_FRAME": "TEME",
          "TIME_SYSTEM": "UTC",
          "MEAN_ELEMENT_THEORY": "SGP4",
          "EPOCH": "2026-03-20T11:17:39.566112",
          "MEAN_MOTION": 15.02170936,
          "ECCENTRICITY": 0.0010469,
          "INCLINATION": 97.6095,
          "RA_OF_ASC_NODE": 50.8856,
          "ARG_OF_PERICENTER": 336.5087,
          "MEAN_ANOMALY": 23.5658,
          "EPHEMERIS_TYPE": 0,
          "CLASSIFICATION_TYPE": "U",
          "NORAD_CAT_ID": 39422,
          "ELEMENT_SET_NO": 999,
          "REV_AT_EPOCH": 67088,
          "BSTAR": 0.0001987,
          "MEAN_MOTION_DOT": 0.00002558,
          "MEAN_MOTION_DDOT": 0,
          "SEMIMAJOR_AXIS": "6938.340",
          "PERIOD": "95.861",
          "APOAPSIS": "567.469",
          "PERIAPSIS": "552.942",
          "OBJECT_TYPE": "PAYLOAD",
          "RCS_SIZE": "MEDIUM",
          "COUNTRY_CODE": "SKOR",
          "LAUNCH_DATE": "2013-11-21",
          "SITE": "OREN",
          "DECAY_DATE": null,
          "FILE": "5093206",
          "GP_ID": "316566115",
          "TLE_LINE0": "0 STSAT 3",
          "TLE_LINE1": "1 39422U 13066G   26079.47059683  .00002558  00000-0  19870-3 0  9990",
          "TLE_LINE2": "2 39422  97.6095  50.8856 0010469 336.5087  23.5658 15.02170936670884"
        }
      }
    }
  }
}